start=new Date('2021-10-11T00:00:00.000Z').valueOf();
sats=[{"PERIAPSIS":"546.282","RA_OF_ASC_NODE":"288.6120","MEAN_MOTION_DOT":"-0.00000498","SITE":"AFETR","SEMIMAJOR_AXIS":"6925.369","MEAN_ELEMENT_THEORY":"SGP4","APOAPSIS":"548.186","BSTAR":"-0.00001455900000","NORAD_CAT_ID":"47835","OBJECT_ID":"2021-018BA","TLE_LINE1":"1 47835U 21018BA  21283.70986693 -.00000498  00000-0 -14559-4 0  9994","PERIOD":"95.593","MEAN_ANOMALY":"289.1925","GP_ID":"186841365","LAUNCH_DATE":"2021-03-11","OBJECT_NAME":"STARLINK-2425","TIME_SYSTEM":"UTC","ARG_OF_PERICENTER":"70.9213","ECCENTRICITY":"0.00013750","EPHEMERIS_TYPE":"0","EPOCH":"2021-10-10T17:02:12.502752","RCS_SIZE":"LARGE","COUNTRY_CODE":"US","CLASSIFICATION_TYPE":"U","INCLINATION":"53.0539","TLE_LINE2":"2 47835  53.0539 288.6120 0001375  70.9213 289.1925 15.06393340 33702","DECAY_DATE":null,"FILE":"3155694","REV_AT_EPOCH":"3370","REF_FRAME":"TEME","ELEMENT_SET_NO":"999","MEAN_MOTION_DDOT":"0.0000000000000","CENTER_NAME":"EARTH","OBJECT_TYPE":"PAYLOAD","MEAN_MOTION":"15.06393340"},{"ECCENTRICITY":"0.00013990","EPHEMERIS_TYPE":"0","RCS_SIZE":"LARGE","EPOCH":"2021-10-10T16:54:54.802944","COUNTRY_CODE":"US","CLASSIFICATION_TYPE":"U","INCLINATION":"53.0541","TLE_LINE2":"2 47836  53.0541 283.5966 0001399  71.9430 288.1711 15.06404734 33786","REV_AT_EPOCH":"3378","FILE":"3155694","DECAY_DATE":null,"MEAN_MOTION_DDOT":"0.0000000000000","ELEMENT_SET_NO":"999","REF_FRAME":"TEME","MEAN_MOTION":"15.06404734","OBJECT_TYPE":"PAYLOAD","CENTER_NAME":"EARTH","PERIAPSIS":"546.230","MEAN_MOTION_DOT":"0.00000186","SITE":"AFETR","SEMIMAJOR_AXIS":"6925.334","RA_OF_ASC_NODE":"283.5966","APOAPSIS":"548.168","BSTAR":"0.00003136300000","MEAN_ELEMENT_THEORY":"SGP4","NORAD_CAT_ID":"47836","TLE_LINE1":"1 47836U 21018BB  21283.70480096  .00000186  00000-0  31363-4 0  9995","OBJECT_ID":"2021-018BB","MEAN_ANOMALY":"288.1711","PERIOD":"95.592","LAUNCH_DATE":"2021-03-11","GP_ID":"186840113","ARG_OF_PERICENTER":"71.9430","TIME_SYSTEM":"UTC","OBJECT_NAME":"STARLINK-2426"},{"LAUNCH_DATE":"2021-03-11","GP_ID":"186840363","ARG_OF_PERICENTER":"75.5179","TIME_SYSTEM":"UTC","OBJECT_NAME":"STARLINK-2427","OBJECT_ID":"2021-018BC","TLE_LINE1":"1 47837U 21018BC  21283.65599321 -.00000119  00000-0  10887-4 0  9997","MEAN_ANOMALY":"284.5980","PERIOD":"95.593","BSTAR":"0.00001088700000","APOAPSIS":"548.310","MEAN_ELEMENT_THEORY":"SGP4","NORAD_CAT_ID":"47837","PERIAPSIS":"546.192","SITE":"AFETR","MEAN_MOTION_DOT":"-0.00000119","SEMIMAJOR_AXIS":"6925.386","RA_OF_ASC_NODE":"263.8243","MEAN_MOTION_DDOT":"0.0000000000000","ELEMENT_SET_NO":"999","REF_FRAME":"TEME","MEAN_MOTION":"15.06387863","CENTER_NAME":"EARTH","OBJECT_TYPE":"PAYLOAD","TLE_LINE2":"2 47837  53.0573 263.8243 0001529  75.5179 284.5980 15.06387863 34069","REV_AT_EPOCH":"3406","FILE":"3155694","DECAY_DATE":null,"COUNTRY_CODE":"US","INCLINATION":"53.0573","CLASSIFICATION_TYPE":"U","ECCENTRICITY":"0.00015290","EPHEMERIS_TYPE":"0","RCS_SIZE":"LARGE","EPOCH":"2021-10-10T15:44:37.813344"},{"MEAN_MOTION":"15.06388646","OBJECT_TYPE":"PAYLOAD","CENTER_NAME":"EARTH","ELEMENT_SET_NO":"999","MEAN_MOTION_DDOT":"0.0000000000000","REF_FRAME":"TEME","REV_AT_EPOCH":"3378","DECAY_DATE":null,"FILE":"3155694","TLE_LINE2":"2 47838  53.0542 283.4792 0001601  76.3427 283.7740 15.06388646 33782","INCLINATION":"53.0542","CLASSIFICATION_TYPE":"U","COUNTRY_CODE":"US","EPOCH":"2021-10-10T17:38:44.460384","RCS_SIZE":"LARGE","ECCENTRICITY":"0.00016010","EPHEMERIS_TYPE":"0","TIME_SYSTEM":"UTC","ARG_OF_PERICENTER":"76.3427","OBJECT_NAME":"STARLINK-2429","LAUNCH_DATE":"2021-03-11","GP_ID":"186840615","MEAN_ANOMALY":"283.7740","PERIOD":"95.593","OBJECT_ID":"2021-018BD","TLE_LINE1":"1 47838U 21018BD  21283.73523681 -.00000354  00000-0 -48671-5 0  9998","NORAD_CAT_ID":"47838","APOAPSIS":"548.357","BSTAR":"-0.00000486710000","MEAN_ELEMENT_THEORY":"SGP4","SITE":"AFETR","MEAN_MOTION_DOT":"-0.00000354","SEMIMAJOR_AXIS":"6925.383","RA_OF_ASC_NODE":"283.4792","PERIAPSIS":"546.140"},{"CLASSIFICATION_TYPE":"U","INCLINATION":"53.0549","COUNTRY_CODE":"US","RCS_SIZE":"LARGE","EPOCH":"2021-10-10T15:13:07.470336","EPHEMERIS_TYPE":"0","ECCENTRICITY":"0.00012340","MEAN_MOTION":"15.27853902","CENTER_NAME":"EARTH","OBJECT_TYPE":"PAYLOAD","MEAN_MOTION_DDOT":"0.0000000000000","ELEMENT_SET_NO":"999","REF_FRAME":"TEME","REV_AT_EPOCH":"3414","DECAY_DATE":null,"FILE":"3155694","TLE_LINE2":"2 47839  53.0549 258.2513 0001234  70.0758 290.0374 15.27853902 34141","NORAD_CAT_ID":"47839","APOAPSIS":"483.078","BSTAR":"0.00016466000000","MEAN_ELEMENT_THEORY":"SGP4","SITE":"AFETR","SEMIMAJOR_AXIS":"6860.366","MEAN_MOTION_DOT":"0.00004190","RA_OF_ASC_NODE":"258.2513","PERIAPSIS":"481.384","ARG_OF_PERICENTER":"70.0758","TIME_SYSTEM":"UTC","OBJECT_NAME":"STARLINK-2431","LAUNCH_DATE":"2021-03-11","GP_ID":"186840866","PERIOD":"94.250","MEAN_ANOMALY":"290.0374","OBJECT_ID":"2021-018BE","TLE_LINE1":"1 47839U 21018BE  21283.63411424  .00004190  00000-0  16466-3 0  9994"},{"MEAN_MOTION_DDOT":"0.0000000000000","ELEMENT_SET_NO":"999","REF_FRAME":"TEME","MEAN_MOTION":"15.06402853","OBJECT_TYPE":"PAYLOAD","CENTER_NAME":"EARTH","TLE_LINE2":"2 47840  53.0545 263.8850 0001214  59.3712 300.7396 15.06402853 34058","REV_AT_EPOCH":"3405","DECAY_DATE":null,"FILE":"3155694","COUNTRY_CODE":"US","CLASSIFICATION_TYPE":"U","INCLINATION":"53.0545","EPHEMERIS_TYPE":"0","ECCENTRICITY":"0.00012140","RCS_SIZE":"LARGE","EPOCH":"2021-10-10T15:23:23.567136","LAUNCH_DATE":"2021-03-11","GP_ID":"186839614","ARG_OF_PERICENTER":"59.3712","TIME_SYSTEM":"UTC","OBJECT_NAME":"STARLINK-2432","OBJECT_ID":"2021-018BF","TLE_LINE1":"1 47840U 21018BF  21283.64124499  .00000463  00000-0  50000-4 0  9992","PERIOD":"95.592","MEAN_ANOMALY":"300.7396","BSTAR":"0.00005000000000","APOAPSIS":"548.046","MEAN_ELEMENT_THEORY":"SGP4","NORAD_CAT_ID":"47840","PERIAPSIS":"546.364","SITE":"AFETR","MEAN_MOTION_DOT":"0.00000463","SEMIMAJOR_AXIS":"6925.340","RA_OF_ASC_NODE":"263.8850"},{"EPHEMERIS_TYPE":"0","ECCENTRICITY":"0.00011870","EPOCH":"2021-10-10T15:18:04.721760","RCS_SIZE":"LARGE","COUNTRY_CODE":"US","INCLINATION":"53.0543","CLASSIFICATION_TYPE":"U","TLE_LINE2":"2 47841  53.0543 263.9004 0001187  73.5444 286.5675 15.06404735 34050","FILE":"3155694","DECAY_DATE":null,"REV_AT_EPOCH":"3405","REF_FRAME":"TEME","ELEMENT_SET_NO":"999","MEAN_MOTION_DDOT":"0.0000000000000","CENTER_NAME":"EARTH","OBJECT_TYPE":"PAYLOAD","MEAN_MOTION":"15.06404735","PERIAPSIS":"546.377","RA_OF_ASC_NODE":"263.9004","SITE":"AFETR","SEMIMAJOR_AXIS":"6925.334","MEAN_MOTION_DOT":"0.00000321","MEAN_ELEMENT_THEORY":"SGP4","BSTAR":"0.00004042700000","APOAPSIS":"548.021","NORAD_CAT_ID":"47841","OBJECT_ID":"2021-018BG","TLE_LINE1":"1 47841U 21018BG  21283.63755465  .00000321  00000-0  40427-4 0  9990","MEAN_ANOMALY":"286.5675","PERIOD":"95.592","GP_ID":"186839864","LAUNCH_DATE":"2021-03-11","OBJECT_NAME":"STARLINK-2433","TIME_SYSTEM":"UTC","ARG_OF_PERICENTER":"73.5444"},{"GP_ID":"186841115","LAUNCH_DATE":"2021-03-11","OBJECT_NAME":"STARLINK-2434","ARG_OF_PERICENTER":"97.8363","TIME_SYSTEM":"UTC","OBJECT_ID":"2021-018BH","TLE_LINE1":"1 47842U 21018BH  21283.75644684  .00006757  00000-0  47194-3 0  9990","MEAN_ANOMALY":"262.2789","PERIOD":"95.592","MEAN_ELEMENT_THEORY":"SGP4","APOAPSIS":"548.175","BSTAR":"0.00047194000000","NORAD_CAT_ID":"47842","PERIAPSIS":"546.190","RA_OF_ASC_NODE":"293.3778","SITE":"AFETR","SEMIMAJOR_AXIS":"6925.318","MEAN_MOTION_DOT":"0.00006757","REF_FRAME":"TEME","MEAN_MOTION_DDOT":"0.0000000000000","ELEMENT_SET_NO":"999","CENTER_NAME":"EARTH","OBJECT_TYPE":"PAYLOAD","MEAN_MOTION":"15.06410059","TLE_LINE2":"2 47842  53.0546 293.3778 0001433  97.8363 262.2789 15.06410059 33706","DECAY_DATE":null,"FILE":"3155694","REV_AT_EPOCH":"3370","COUNTRY_CODE":"US","INCLINATION":"53.0546","CLASSIFICATION_TYPE":"U","EPHEMERIS_TYPE":"0","ECCENTRICITY":"0.00014330","RCS_SIZE":"LARGE","EPOCH":"2021-10-10T18:09:17.006976"},{"RA_OF_ASC_NODE":"288.5008","MEAN_MOTION_DOT":"-0.00000008","SITE":"AFETR","SEMIMAJOR_AXIS":"6925.378","PERIAPSIS":"546.244","NORAD_CAT_ID":"47843","MEAN_ELEMENT_THEORY":"SGP4","BSTAR":"0.00001834200000","APOAPSIS":"548.241","PERIOD":"95.593","MEAN_ANOMALY":"290.9162","OBJECT_ID":"2021-018BJ","TLE_LINE1":"1 47843U 21018BJ  21283.72925087 -.00000008  00000-0  18342-4 0  9995","OBJECT_NAME":"STARLINK-2435","TIME_SYSTEM":"UTC","ARG_OF_PERICENTER":"69.1981","GP_ID":"186841366","LAUNCH_DATE":"2021-03-11","EPOCH":"2021-10-10T17:30:07.275168","RCS_SIZE":"LARGE","ECCENTRICITY":"0.00014420","EPHEMERIS_TYPE":"0","CLASSIFICATION_TYPE":"U","INCLINATION":"53.0554","COUNTRY_CODE":"US","DECAY_DATE":null,"FILE":"3155694","REV_AT_EPOCH":"3373","TLE_LINE2":"2 47843  53.0554 288.5008 0001442  69.1981 290.9162 15.06390541 33735","CENTER_NAME":"EARTH","OBJECT_TYPE":"PAYLOAD","MEAN_MOTION":"15.06390541","REF_FRAME":"TEME","ELEMENT_SET_NO":"999","MEAN_MOTION_DDOT":"0.0000000000000"},{"GP_ID":"186840114","LAUNCH_DATE":"2021-03-11","OBJECT_NAME":"STARLINK-2446","TIME_SYSTEM":"UTC","ARG_OF_PERICENTER":"75.8505","TLE_LINE1":"1 47844U 21018BK  21283.72784884  .00001480  00000-0  11823-3 0  9994","OBJECT_ID":"2021-018BK","MEAN_ANOMALY":"284.2653","PERIOD":"95.592","MEAN_ELEMENT_THEORY":"SGP4","APOAPSIS":"548.252","BSTAR":"0.00011823000000","NORAD_CAT_ID":"47844","PERIAPSIS":"546.152","RA_OF_ASC_NODE":"283.5008","SEMIMAJOR_AXIS":"6925.337","SITE":"AFETR","MEAN_MOTION_DOT":"0.00001480","REF_FRAME":"TEME","ELEMENT_SET_NO":"999","MEAN_MOTION_DDOT":"0.0000000000000","CENTER_NAME":"EARTH","OBJECT_TYPE":"PAYLOAD","MEAN_MOTION":"15.06403887","TLE_LINE2":"2 47844  53.0550 283.5008 0001516  75.8505 284.2653 15.06403887 33789","DECAY_DATE":null,"FILE":"3155694","REV_AT_EPOCH":"3378","COUNTRY_CODE":"US","CLASSIFICATION_TYPE":"U","INCLINATION":"53.0550","ECCENTRICITY":"0.00015160","EPHEMERIS_TYPE":"0","EPOCH":"2021-10-10T17:28:06.139776","RCS_SIZE":"LARGE"}];
